COSMOS 1933             
1 18958U 88020A   25340.75067041  .00007561  00000+0  38072-3 0  9994
2 18958  82.5131 342.7964 0005385 143.9223 216.2374 15.17036160 36131
SL-3 R/B                
1 19046U 88032B   25340.93160120  .00007649  00000+0  36922-3 0  9997
2 19046  97.5075 319.6923 0026065 193.2604 166.7949 15.18653207 38025
SL-16 R/B               
1 19120U 88039B   25340.89849642  .00000249  00000+0  14044-3 0  9995
2 19120  71.0152 264.7487 0019880 126.1693 234.1275 14.19595221945217
COSMOS 1953             
1 19210U 88050A   25340.80624164  .00010003  00000+0  37708-3 0  9990
2 19210  82.5098 251.5339 0013814  89.3792 270.9030 15.26836961 23609
SL-8 R/B                
1 19257U 88053B   25340.97925830  .00000492  00000+0  16806-3 0  9993
2 19257  74.0476 283.3361 0019108 129.6520 298.0900 14.38853578963260
COSMOS 1975             
1 19573U 88093A   25340.68423357  .00012483  00000+0  47810-3 0  9995
2 19573  82.5203 210.8898 0012450 131.3346 228.8966 15.26343345  5211
SL-14 R/B               
1 19574U 88093B   25340.92530861  .00000937  00000+0  10539-3 0  9991
2 19574  82.5300 129.1237 0020425 349.2083 126.7174 14.85539184987261
SL-16 R/B               
1 19650U 88102B   25340.03058683 -.00000159  00000+0 -56347-4 0  9992
2 19650  71.0002 348.5606 0013275 163.2235 196.9330 14.16137046913631
INTERCOSMOS 24          
1 20261U 89080A   25340.94448714  .00001538  00000+0  44728-3 0  9995
2 20261  82.6044 164.7208 1188767 147.9597 219.9764 12.59423048655120
SL-14 R/B               
1 20262U 89080C   25340.82387144  .00000779  00000+0  22862-3 0  9993
2 20262  82.5936 232.8176 1230750  37.1055 330.9007 12.50406641648543
DELTA 1 R/B             
1 20323U 89089B   25340.63850734  .00000707  00000+0  18346-3 0  9992
2 20323  97.0757 197.8428 0070440  57.2460 303.5501 14.50564935882248
ARIANE 40 R/B           
1 20443U 90005H   25340.90167340  .00000637  00000+0  21634-3 0  9995
2 20443  98.3250  39.2443 0011144 121.6333 238.5945 14.39791971879457
