CCSDS_OMM_VERS = 2.0
CREATION_DATE  = 
ORIGINATOR     = 

OBJECT_NAME    = COSMOS 1933
OBJECT_ID      = 1988-020A
CENTER_NAME    = EARTH
REF_FRAME      = TEME
TIME_SYSTEM    = UTC
MEAN_ELEMENT_THEORY = SGP/SGP4

EPOCH          = 2025-12-06T18:00:57.923424
MEAN_MOTION    = 15.17036160
ECCENTRICITY   = .00053855
INCLINATION    = 82.5131
RA_OF_ASC_NODE = 342.7964
ARG_OF_PERICENTER = 143.9223
MEAN_ANOMALY   = 216.2374

EPHEMERIS_TYPE = 0
CLASSIFICATION_TYPE = U
NORAD_CAT_ID   = 18958
ELEMENT_SET_NO = 999
REV_AT_EPOCH   = 3613
BSTAR          = .38072138E-3
MEAN_MOTION_DOT = .7561E-4
MEAN_MOTION_DDOT = 0

CCSDS_OMM_VERS = 2.0
CREATION_DATE  = 
ORIGINATOR     = 

OBJECT_NAME    = SL-3 R/B
OBJECT_ID      = 1988-032B
CENTER_NAME    = EARTH
REF_FRAME      = TEME
TIME_SYSTEM    = UTC
MEAN_ELEMENT_THEORY = SGP/SGP4

EPOCH          = 2025-12-06T22:21:30.343680
MEAN_MOTION    = 15.18653207
ECCENTRICITY   = .00260651
INCLINATION    = 97.5075
RA_OF_ASC_NODE = 319.6923
ARG_OF_PERICENTER = 193.2604
MEAN_ANOMALY   = 166.7949

EPHEMERIS_TYPE = 0
CLASSIFICATION_TYPE = U
NORAD_CAT_ID   = 19046
ELEMENT_SET_NO = 999
REV_AT_EPOCH   = 3802
BSTAR          = .36921772E-3
MEAN_MOTION_DOT = .7649E-4
MEAN_MOTION_DDOT = 0

CCSDS_OMM_VERS = 2.0
CREATION_DATE  = 
ORIGINATOR     = 

OBJECT_NAME    = SL-16 R/B
OBJECT_ID      = 1988-039B
CENTER_NAME    = EARTH
REF_FRAME      = TEME
TIME_SYSTEM    = UTC
MEAN_ELEMENT_THEORY = SGP/SGP4

EPOCH          = 2025-12-06T21:33:50.090688
MEAN_MOTION    = 14.19595221
ECCENTRICITY   = .00198806
INCLINATION    = 71.0152
RA_OF_ASC_NODE = 264.7487
ARG_OF_PERICENTER = 126.1693
MEAN_ANOMALY   = 234.1275

EPHEMERIS_TYPE = 0
CLASSIFICATION_TYPE = U
NORAD_CAT_ID   = 19120
ELEMENT_SET_NO = 999
REV_AT_EPOCH   = 94521
BSTAR          = .14044476E-3
MEAN_MOTION_DOT = .249E-5
MEAN_MOTION_DDOT = 0

CCSDS_OMM_VERS = 2.0
CREATION_DATE  = 
ORIGINATOR     = 

OBJECT_NAME    = COSMOS 1953
OBJECT_ID      = 1988-050A
CENTER_NAME    = EARTH
REF_FRAME      = TEME
TIME_SYSTEM    = UTC
MEAN_ELEMENT_THEORY = SGP/SGP4

EPOCH          = 2025-12-06T19:20:59.277696
MEAN_MOTION    = 15.26836961
ECCENTRICITY   = .00138148
INCLINATION    = 82.5098
RA_OF_ASC_NODE = 251.5339
ARG_OF_PERICENTER = 89.3792
MEAN_ANOMALY   = 270.9030

EPHEMERIS_TYPE = 0
CLASSIFICATION_TYPE = U
NORAD_CAT_ID   = 19210
ELEMENT_SET_NO = 999
REV_AT_EPOCH   = 2360
BSTAR          = .37708231E-3
MEAN_MOTION_DOT = .10003E-3
MEAN_MOTION_DDOT = 0

CCSDS_OMM_VERS = 2.0
CREATION_DATE  = 
ORIGINATOR     = 

OBJECT_NAME    = SL-8 R/B
OBJECT_ID      = 1988-053B
CENTER_NAME    = EARTH
REF_FRAME      = TEME
TIME_SYSTEM    = UTC
MEAN_ELEMENT_THEORY = SGP/SGP4

EPOCH          = 2025-12-06T23:30:07.917120
MEAN_MOTION    = 14.38853578
ECCENTRICITY   = .00191085
INCLINATION    = 74.0476
RA_OF_ASC_NODE = 283.3361
ARG_OF_PERICENTER = 129.6520
MEAN_ANOMALY   = 298.0900

EPHEMERIS_TYPE = 0
CLASSIFICATION_TYPE = U
NORAD_CAT_ID   = 19257
ELEMENT_SET_NO = 999
REV_AT_EPOCH   = 96326
BSTAR          = .16805985E-3
MEAN_MOTION_DOT = .492E-5
MEAN_MOTION_DDOT = 0

CCSDS_OMM_VERS = 2.0
CREATION_DATE  = 
ORIGINATOR     = 

OBJECT_NAME    = COSMOS 1975
OBJECT_ID      = 1988-093A
CENTER_NAME    = EARTH
REF_FRAME      = TEME
TIME_SYSTEM    = UTC
MEAN_ELEMENT_THEORY = SGP/SGP4

EPOCH          = 2025-12-06T16:25:17.780448
MEAN_MOTION    = 15.26343345
ECCENTRICITY   = .00124506
INCLINATION    = 82.5203
RA_OF_ASC_NODE = 210.8898
ARG_OF_PERICENTER = 131.3346
MEAN_ANOMALY   = 228.8966

EPHEMERIS_TYPE = 0
CLASSIFICATION_TYPE = U
NORAD_CAT_ID   = 19573
ELEMENT_SET_NO = 999
REV_AT_EPOCH   = 521
BSTAR          = .47809821E-3
MEAN_MOTION_DOT = .12483E-3
MEAN_MOTION_DDOT = 0

CCSDS_OMM_VERS = 2.0
CREATION_DATE  = 
ORIGINATOR     = 

OBJECT_NAME    = SL-14 R/B
OBJECT_ID      = 1988-093B
CENTER_NAME    = EARTH
REF_FRAME      = TEME
TIME_SYSTEM    = UTC
MEAN_ELEMENT_THEORY = SGP/SGP4

EPOCH          = 2025-12-06T22:12:26.663904
MEAN_MOTION    = 14.85539184
ECCENTRICITY   = .00204257
INCLINATION    = 82.5300
RA_OF_ASC_NODE = 129.1237
ARG_OF_PERICENTER = 349.2083
MEAN_ANOMALY   = 126.7174

EPHEMERIS_TYPE = 0
CLASSIFICATION_TYPE = U
NORAD_CAT_ID   = 19574
ELEMENT_SET_NO = 999
REV_AT_EPOCH   = 98726
BSTAR          = .10538967E-3
MEAN_MOTION_DOT = .937E-5
MEAN_MOTION_DDOT = 0

CCSDS_OMM_VERS = 2.0
CREATION_DATE  = 
ORIGINATOR     = 

OBJECT_NAME    = SL-16 R/B
OBJECT_ID      = 1988-102B
CENTER_NAME    = EARTH
REF_FRAME      = TEME
TIME_SYSTEM    = UTC
MEAN_ELEMENT_THEORY = SGP/SGP4

EPOCH          = 2025-12-06T00:44:02.702112
MEAN_MOTION    = 14.16137046
ECCENTRICITY   = .00132755
INCLINATION    = 71.0002
RA_OF_ASC_NODE = 348.5606
ARG_OF_PERICENTER = 163.2235
MEAN_ANOMALY   = 196.9330

EPHEMERIS_TYPE = 0
CLASSIFICATION_TYPE = U
NORAD_CAT_ID   = 19650
ELEMENT_SET_NO = 999
REV_AT_EPOCH   = 91363
BSTAR          = -.5634707E-4
MEAN_MOTION_DOT = -.159E-5
MEAN_MOTION_DDOT = 0

CCSDS_OMM_VERS = 2.0
CREATION_DATE  = 
ORIGINATOR     = 

OBJECT_NAME    = INTERCOSMOS 24
OBJECT_ID      = 1989-080A
CENTER_NAME    = EARTH
REF_FRAME      = TEME
TIME_SYSTEM    = UTC
MEAN_ELEMENT_THEORY = SGP/SGP4

EPOCH          = 2025-12-06T22:40:03.688896
MEAN_MOTION    = 12.59423048
ECCENTRICITY   = .11887677
INCLINATION    = 82.6044
RA_OF_ASC_NODE = 164.7208
ARG_OF_PERICENTER = 147.9597
MEAN_ANOMALY   = 219.9764

EPHEMERIS_TYPE = 0
CLASSIFICATION_TYPE = U
NORAD_CAT_ID   = 20261
ELEMENT_SET_NO = 999
REV_AT_EPOCH   = 65512
BSTAR          = .44727992E-3
MEAN_MOTION_DOT = .1538E-4
MEAN_MOTION_DDOT = 0

CCSDS_OMM_VERS = 2.0
CREATION_DATE  = 
ORIGINATOR     = 

OBJECT_NAME    = SL-14 R/B
OBJECT_ID      = 1989-080C
CENTER_NAME    = EARTH
REF_FRAME      = TEME
TIME_SYSTEM    = UTC
MEAN_ELEMENT_THEORY = SGP/SGP4

EPOCH          = 2025-12-06T19:46:22.492416
MEAN_MOTION    = 12.50406641
ECCENTRICITY   = .12307509
INCLINATION    = 82.5936
RA_OF_ASC_NODE = 232.8176
ARG_OF_PERICENTER = 37.1055
MEAN_ANOMALY   = 330.9007

EPHEMERIS_TYPE = 0
CLASSIFICATION_TYPE = U
NORAD_CAT_ID   = 20262
ELEMENT_SET_NO = 999
REV_AT_EPOCH   = 64854
BSTAR          = .22861639E-3
MEAN_MOTION_DOT = .779E-5
MEAN_MOTION_DDOT = 0

CCSDS_OMM_VERS = 2.0
CREATION_DATE  = 
ORIGINATOR     = 

OBJECT_NAME    = DELTA 1 R/B
OBJECT_ID      = 1989-089B
CENTER_NAME    = EARTH
REF_FRAME      = TEME
TIME_SYSTEM    = UTC
MEAN_ELEMENT_THEORY = SGP/SGP4

EPOCH          = 2025-12-06T15:19:27.034176
MEAN_MOTION    = 14.50564935
ECCENTRICITY   = .00704404
INCLINATION    = 97.0757
RA_OF_ASC_NODE = 197.8428
ARG_OF_PERICENTER = 57.2460
MEAN_ANOMALY   = 303.5501

EPHEMERIS_TYPE = 0
CLASSIFICATION_TYPE = U
NORAD_CAT_ID   = 20323
ELEMENT_SET_NO = 999
REV_AT_EPOCH   = 88224
BSTAR          = .18346419E-3
MEAN_MOTION_DOT = .707E-5
MEAN_MOTION_DDOT = 0

CCSDS_OMM_VERS = 2.0
CREATION_DATE  = 
ORIGINATOR     = 

OBJECT_NAME    = ARIANE 40 R/B
OBJECT_ID      = 1990-005H
CENTER_NAME    = EARTH
REF_FRAME      = TEME
TIME_SYSTEM    = UTC
MEAN_ELEMENT_THEORY = SGP/SGP4

EPOCH          = 2025-12-06T21:38:24.581760
MEAN_MOTION    = 14.39791971
ECCENTRICITY   = .00111447
INCLINATION    = 98.3250
RA_OF_ASC_NODE = 39.2443
ARG_OF_PERICENTER = 121.6333
MEAN_ANOMALY   = 238.5945

EPHEMERIS_TYPE = 0
CLASSIFICATION_TYPE = U
NORAD_CAT_ID   = 20443
ELEMENT_SET_NO = 999
REV_AT_EPOCH   = 87945
BSTAR          = .21634338E-3
MEAN_MOTION_DOT = .637E-5
MEAN_MOTION_DDOT = 0

